OBJECT C                
1 57582U 23117C   24255.06666289  .00017221  00000+0  84508-3 0  9992
2 57582  97.4792 326.0338 0009967   2.9242 357.2048 15.18118784 60203
